EUTELSAT 21B            
1 38992U 12062B   25345.92390380  .00000139  00000+0  00000+0 0  9996
2 38992   0.0666   4.2938 0003337 266.1862 164.5991  1.00272129 47958
EUTELSAT 70B            
1 39020U 12069A   25345.93361053 -.00000035  00000+0  00000+0 0  9998
2 39020   0.0628 343.7306 0004311 262.4133 241.3588  1.00270933 47634
EUTELSAT 117 WEST A     
1 39122U 13012A   25345.96786760 -.00000004  00000+0  00000+0 0  9995
2 39122   0.0144   8.2993 0002956 255.3343  48.9131  1.00271472 46556
EUTELSAT 7B             
1 39163U 13022A   25345.92104378  .00000057  00000+0  00000+0 0  9993
2 39163   0.0731  20.0166 0004619 296.9814 102.4454  1.00272719 46075
EXPRESS-AT1             
1 39612U 14010A   25345.93075051  .00000087  00000+0  00000+0 0  9999
2 39612   0.0177 298.5169 0000387 275.6842 257.7452  1.00271479 42942
EXPRESS-AT2             
1 39613U 14010B   25345.66199546 -.00000273  00000+0  00000+0 0  9994
2 39613   0.0193 312.5987 0001423 324.9998 181.2055  1.00271778 42625
EUTELSAT 3B             
1 39773U 14030A   25345.92026377  .00000028  00000+0  00000+0 0  9990
2 39773   0.0612 347.6355 0004604 242.7733 184.8606  1.00270349 42189
EUTELSAT 115 WEST B     
1 40425U 15010B   25345.96821427 -.00000016  00000+0  00000+0 0  9996
2 40425   0.0398 160.8352 0000216 353.0477 160.6978  1.00272293 39511
